[{"OBJECT_NAME":"COSMOS 2251 DEB","OBJECT_ID":"1993-036PS","EPOCH":"2026-03-10T03:14:12.770592","MEAN_MOTION":14.17091556,"ECCENTRICITY":0.01545514,"INCLINATION":73.9777,"RA_OF_ASC_NODE":314.2344,"ARG_OF_PERICENTER":119.6063,"MEAN_ANOMALY":31.7757,"EPHEMERIS_TYPE":0,"CLASSIFICATION_TYPE":"U","NORAD_CAT_ID":34344,"ELEMENT_SET_NO":999,"REV_AT_EPOCH":87334,"BSTAR":0.0014700447,"MEAN_MOTION_DOT":3.304e-5,"MEAN_MOTION_DDOT":0},{"OBJECT_NAME":"COSMOS 2251 DEB","OBJECT_ID":"1993-036PU","EPOCH":"2026-03-09T07:00:45.300672","MEAN_MOTION":14.00030596,"ECCENTRICITY":0.02091846,"INCLINATION":73.9945,"RA_OF_ASC_NODE":162.0143,"ARG_OF_PERICENTER":320.7862,"MEAN_ANOMALY":102.032,"EPHEMERIS_TYPE":0,"CLASSIFICATION_TYPE":"U","NORAD_CAT_ID":34346,"ELEMENT_SET_NO":999,"REV_AT_EPOCH":86621,"BSTAR":0.00086947141,"MEAN_MOTION_DOT":1.521e-5,"MEAN_MOTION_DDOT":0},{"OBJECT_NAME":"COSMOS 2251 DEB","OBJECT_ID":"1993-036PY","EPOCH":"2026-03-10T06:20:37.274784","MEAN_MOTION":15.22607573,"ECCENTRICITY":0.00131614,"INCLINATION":74.0263,"RA_OF_ASC_NODE":115.4489,"ARG_OF_PERICENTER":281.9382,"MEAN_ANOMALY":151.9091,"EPHEMERIS_TYPE":0,"CLASSIFICATION_TYPE":"U","NORAD_CAT_ID":34383,"ELEMENT_SET_NO":999,"REV_AT_EPOCH":90439,"BSTAR":0.0039124809,"MEAN_MOTION_DOT":0.00092303,"MEAN_MOTION_DDOT":0},{"OBJECT_NAME":"COSMOS 2251 DEB","OBJECT_ID":"1993-036QC","EPOCH":"2026-03-09T09:57:31.453632","MEAN_MOTION":14.44064523,"ECCENTRICITY":0.00366901,"INCLINATION":74.0394,"RA_OF_ASC_NODE":50.7559,"ARG_OF_PERICENTER":129.6263,"MEAN_ANOMALY":24.1572,"EPHEMERIS_TYPE":0,"CLASSIFICATION_TYPE":"U","NORAD_CAT_ID":34387,"ELEMENT_SET_NO":999,"REV_AT_EPOCH":89432,"BSTAR":0.00037729609,"MEAN_MOTION_DOT":1.275e-5,"MEAN_MOTION_DDOT":0},{"OBJECT_NAME":"COSMOS 2251 DEB","OBJECT_ID":"1993-036QD","EPOCH":"2026-03-09T10:07:57.726624","MEAN_MOTION":14.49932165,"ECCENTRICITY":0.00100685,"INCLINATION":74.0387,"RA_OF_ASC_NODE":60.4523,"ARG_OF_PERICENTER":92.4181,"MEAN_ANOMALY":59.8156,"EPHEMERIS_TYPE":0,"CLASSIFICATION_TYPE":"U","NORAD_CAT_ID":34388,"ELEMENT_SET_NO":999,"REV_AT_EPOCH":89411,"BSTAR":0.00085538234,"MEAN_MOTION_DOT":3.284e-5,"MEAN_MOTION_DDOT":0},{"OBJECT_NAME":"COSMOS 2251 DEB","OBJECT_ID":"1993-036QE","EPOCH":"2026-03-10T02:06:18.639936","MEAN_MOTION":14.417918,"ECCENTRICITY":0.00295378,"INCLINATION":74.0163,"RA_OF_ASC_NODE":87.8135,"ARG_OF_PERICENTER":185.6563,"MEAN_ANOMALY":230.2893,"EPHEMERIS_TYPE":0,"CLASSIFICATION_TYPE":"U","NORAD_CAT_ID":34389,"ELEMENT_SET_NO":999,"REV_AT_EPOCH":89271,"BSTAR":0.00038248422,"MEAN_MOTION_DOT":1.229e-5,"MEAN_MOTION_DDOT":0},{"OBJECT_NAME":"COSMOS 2251 DEB","OBJECT_ID":"1993-036QM","EPOCH":"2026-03-10T03:16:39.655776","MEAN_MOTION":14.77141875,"ECCENTRICITY":0.0004722,"INCLINATION":74.0289,"RA_OF_ASC_NODE":312.9547,"ARG_OF_PERICENTER":317.5693,"MEAN_ANOMALY":195.4663,"EPHEMERIS_TYPE":0,"CLASSIFICATION_TYPE":"U","NORAD_CAT_ID":34396,"ELEMENT_SET_NO":999,"REV_AT_EPOCH":89635,"BSTAR":0.0017757913,"MEAN_MOTION_DOT":0.00012552,"MEAN_MOTION_DDOT":0},{"OBJECT_NAME":"COSMOS 2251 DEB","OBJECT_ID":"1993-036RA","EPOCH":"2026-03-10T05:37:18.628896","MEAN_MOTION":14.58256658,"ECCENTRICITY":0.00803583,"INCLINATION":74.0631,"RA_OF_ASC_NODE":140.64,"ARG_OF_PERICENTER":194.299,"MEAN_ANOMALY":222.6026,"EPHEMERIS_TYPE":0,"CLASSIFICATION_TYPE":"U","NORAD_CAT_ID":34409,"ELEMENT_SET_NO":999,"REV_AT_EPOCH":90468,"BSTAR":0.00023144232,"MEAN_MOTION_DOT":1.086e-5,"MEAN_MOTION_DDOT":0},{"OBJECT_NAME":"COSMOS 2251 DEB","OBJECT_ID":"1993-036RB","EPOCH":"2026-03-09T01:08:04.800192","MEAN_MOTION":15.30699894,"ECCENTRICITY":0.0025297,"INCLINATION":73.7308,"RA_OF_ASC_NODE":76.2904,"ARG_OF_PERICENTER":263.9966,"MEAN_ANOMALY":95.8352,"EPHEMERIS_TYPE":0,"CLASSIFICATION_TYPE":"U","NORAD_CAT_ID":34410,"ELEMENT_SET_NO":999,"REV_AT_EPOCH":91089,"BSTAR":0.0030183,"MEAN_MOTION_DOT":0.00091531,"MEAN_MOTION_DDOT":0},{"OBJECT_NAME":"COSMOS 2251 DEB","OBJECT_ID":"1993-036RD","EPOCH":"2026-03-10T06:11:08.482848","MEAN_MOTION":14.48215101,"ECCENTRICITY":0.01883879,"INCLINATION":73.9484,"RA_OF_ASC_NODE":159.859,"ARG_OF_PERICENTER":236.3494,"MEAN_ANOMALY":121.9574,"EPHEMERIS_TYPE":0,"CLASSIFICATION_TYPE":"U","NORAD_CAT_ID":34412,"ELEMENT_SET_NO":999,"REV_AT_EPOCH":88917,"BSTAR":0.0012477692,"MEAN_MOTION_DOT":5.799e-5,"MEAN_MOTION_DDOT":0},{"OBJECT_NAME":"COSMOS 2251 DEB","OBJECT_ID":"1993-036RE","EPOCH":"2026-03-10T06:07:04.249920","MEAN_MOTION":14.2980219,"ECCENTRICITY":0.00893898,"INCLINATION":74.0292,"RA_OF_ASC_NODE":105.8436,"ARG_OF_PERICENTER":165.5884,"MEAN_ANOMALY":313.5853,"EPHEMERIS_TYPE":0,"CLASSIFICATION_TYPE":"U","NORAD_CAT_ID":34413,"ELEMENT_SET_NO":999,"REV_AT_EPOCH":88381,"BSTAR":0.0010509013,"MEAN_MOTION_DOT":2.796e-5,"MEAN_MOTION_DDOT":0},{"OBJECT_NAME":"COSMOS 2251 DEB","OBJECT_ID":"1993-036RM","EPOCH":"2026-03-10T02:31:20.425728","MEAN_MOTION":14.68531047,"ECCENTRICITY":0.01046486,"INCLINATION":74.0321,"RA_OF_ASC_NODE":294.9395,"ARG_OF_PERICENTER":32.6779,"MEAN_ANOMALY":130.1956,"EPHEMERIS_TYPE":0,"CLASSIFICATION_TYPE":"U","NORAD_CAT_ID":34420,"ELEMENT_SET_NO":999,"REV_AT_EPOCH":91052,"BSTAR":0.00018468888,"MEAN_MOTION_DOT":1.129e-5,"MEAN_MOTION_DDOT":0},{"OBJECT_NAME":"COSMOS 2251 DEB","OBJECT_ID":"1993-036RS","EPOCH":"2026-03-09T22:27:20.600640","MEAN_MOTION":14.62723527,"ECCENTRICITY":0.0025864,"INCLINATION":74.0171,"RA_OF_ASC_NODE":247.2973,"ARG_OF_PERICENTER":347.5384,"MEAN_ANOMALY":12.514,"EPHEMERIS_TYPE":0,"CLASSIFICATION_TYPE":"U","NORAD_CAT_ID":34425,"ELEMENT_SET_NO":999,"REV_AT_EPOCH":90015,"BSTAR":0.00066343,"MEAN_MOTION_DOT":3.367e-5,"MEAN_MOTION_DDOT":0},{"OBJECT_NAME":"COSMOS 2251 DEB","OBJECT_ID":"1993-036RX","EPOCH":"2026-03-10T07:22:43.045824","MEAN_MOTION":14.39917649,"ECCENTRICITY":0.00608262,"INCLINATION":74.0513,"RA_OF_ASC_NODE":141.763,"ARG_OF_PERICENTER":192.949,"MEAN_ANOMALY":167.0107,"EPHEMERIS_TYPE":0,"CLASSIFICATION_TYPE":"U","NORAD_CAT_ID":34430,"ELEMENT_SET_NO":999,"REV_AT_EPOCH":89215,"BSTAR":0.00043674108,"MEAN_MOTION_DOT":1.377e-5,"MEAN_MOTION_DDOT":0},{"OBJECT_NAME":"COSMOS 2251 DEB","OBJECT_ID":"1993-036RY","EPOCH":"2026-03-10T06:57:29.545056","MEAN_MOTION":14.29108751,"ECCENTRICITY":0.00678113,"INCLINATION":74.0781,"RA_OF_ASC_NODE":16.6801,"ARG_OF_PERICENTER":338.1239,"MEAN_ANOMALY":21.7017,"EPHEMERIS_TYPE":0,"CLASSIFICATION_TYPE":"U","NORAD_CAT_ID":34431,"ELEMENT_SET_NO":999,"REV_AT_EPOCH":88393,"BSTAR":0.00088088546,"MEAN_MOTION_DOT":2.264e-5,"MEAN_MOTION_DDOT":0},{"OBJECT_NAME":"COSMOS 2251 DEB","OBJECT_ID":"1993-036RZ","EPOCH":"2026-03-10T01:53:04.382880","MEAN_MOTION":14.03195207,"ECCENTRICITY":0.01803462,"INCLINATION":73.8282,"RA_OF_ASC_NODE":308.4161,"ARG_OF_PERICENTER":14.9836,"MEAN_ANOMALY":134.848,"EPHEMERIS_TYPE":0,"CLASSIFICATION_TYPE":"U","NORAD_CAT_ID":34432,"ELEMENT_SET_NO":999,"REV_AT_EPOCH":86909,"BSTAR":0.0010096909,"MEAN_MOTION_DOT":1.791e-5,"MEAN_MOTION_DDOT":0},{"OBJECT_NAME":"COSMOS 2251 DEB","OBJECT_ID":"1993-036SA","EPOCH":"2026-03-10T06:26:39.905952","MEAN_MOTION":14.13475184,"ECCENTRICITY":0.01502454,"INCLINATION":74.012,"RA_OF_ASC_NODE":359.8194,"ARG_OF_PERICENTER":118.4834,"MEAN_ANOMALY":243.1534,"EPHEMERIS_TYPE":0,"CLASSIFICATION_TYPE":"U","NORAD_CAT_ID":34433,"ELEMENT_SET_NO":999,"REV_AT_EPOCH":87186,"BSTAR":0.0014354032,"MEAN_MOTION_DOT":2.985e-5,"MEAN_MOTION_DDOT":0},{"OBJECT_NAME":"COSMOS 2251 DEB","OBJECT_ID":"1993-036SB","EPOCH":"2026-03-10T05:43:35.969664","MEAN_MOTION":13.90605602,"ECCENTRICITY":0.02773115,"INCLINATION":74.0604,"RA_OF_ASC_NODE":221.1924,"ARG_OF_PERICENTER":337.509,"MEAN_ANOMALY":87.3295,"EPHEMERIS_TYPE":0,"CLASSIFICATION_TYPE":"U","NORAD_CAT_ID":34434,"ELEMENT_SET_NO":999,"REV_AT_EPOCH":85182,"BSTAR":0.0025714767,"MEAN_MOTION_DOT":4.351e-5,"MEAN_MOTION_DDOT":0},{"OBJECT_NAME":"COSMOS 2251 DEB","OBJECT_ID":"1993-036SP","EPOCH":"2026-03-09T22:21:03.684096","MEAN_MOTION":14.49459952,"ECCENTRICITY":0.0050735,"INCLINATION":74.0389,"RA_OF_ASC_NODE":253.7546,"ARG_OF_PERICENTER":7.3144,"MEAN_ANOMALY":352.8744,"EPHEMERIS_TYPE":0,"CLASSIFICATION_TYPE":"U","NORAD_CAT_ID":34446,"ELEMENT_SET_NO":999,"REV_AT_EPOCH":89957,"BSTAR":0.00014134,"MEAN_MOTION_DOT":5.21e-6,"MEAN_MOTION_DDOT":0},{"OBJECT_NAME":"COSMOS 2251 DEB","OBJECT_ID":"1993-036SS","EPOCH":"2026-03-09T22:59:54.977280","MEAN_MOTION":15.02003149,"ECCENTRICITY":0.0020605,"INCLINATION":74.0288,"RA_OF_ASC_NODE":253.6967,"ARG_OF_PERICENTER":277.4018,"MEAN_ANOMALY":234.4946,"EPHEMERIS_TYPE":0,"CLASSIFICATION_TYPE":"U","NORAD_CAT_ID":34449,"ELEMENT_SET_NO":999,"REV_AT_EPOCH":89999,"BSTAR":0.002947,"MEAN_MOTION_DOT":0.00038984,"MEAN_MOTION_DDOT":0},{"OBJECT_NAME":"COSMOS 2251 DEB","OBJECT_ID":"1993-036SU","EPOCH":"2026-03-10T00:20:51.481536","MEAN_MOTION":15.03102847,"ECCENTRICITY":0.0020237,"INCLINATION":74.0427,"RA_OF_ASC_NODE":270.788,"ARG_OF_PERICENTER":269.4129,"MEAN_ANOMALY":90.4741,"EPHEMERIS_TYPE":0,"CLASSIFICATION_TYPE":"U","NORAD_CAT_ID":34451,"ELEMENT_SET_NO":999,"REV_AT_EPOCH":89943,"BSTAR":0.0026543477,"MEAN_MOTION_DOT":0.00036125,"MEAN_MOTION_DDOT":0},{"OBJECT_NAME":"COSMOS 2251 DEB","OBJECT_ID":"1993-036SV","EPOCH":"2026-03-10T05:51:09.617184","MEAN_MOTION":15.15023551,"ECCENTRICITY":0.00580141,"INCLINATION":74.0281,"RA_OF_ASC_NODE":1.194,"ARG_OF_PERICENTER":54.8704,"MEAN_ANOMALY":305.7908,"EPHEMERIS_TYPE":0,"CLASSIFICATION_TYPE":"U","NORAD_CAT_ID":34452,"ELEMENT_SET_NO":999,"REV_AT_EPOCH":91986,"BSTAR":0.001262363,"MEAN_MOTION_DOT":0.00024652,"MEAN_MOTION_DDOT":0},{"OBJECT_NAME":"COSMOS 2251 DEB","OBJECT_ID":"1993-036SX","EPOCH":"2026-03-10T02:30:42.338880","MEAN_MOTION":14.38959194,"ECCENTRICITY":0.00346029,"INCLINATION":74.0571,"RA_OF_ASC_NODE":116.7269,"ARG_OF_PERICENTER":162.2519,"MEAN_ANOMALY":197.9853,"EPHEMERIS_TYPE":0,"CLASSIFICATION_TYPE":"U","NORAD_CAT_ID":34454,"ELEMENT_SET_NO":999,"REV_AT_EPOCH":89324,"BSTAR":0.00020103258,"MEAN_MOTION_DOT":5.98e-6,"MEAN_MOTION_DDOT":0}]
